OBJECT_NAME,OBJECT_ID,EPOCH,MEAN_MOTION,ECCENTRICITY,INCLINATION,RA_OF_ASC_NODE,ARG_OF_PERICENTER,MEAN_ANOMALY,EPHEMERIS_TYPE,CLASSIFICATION_TYPE,NORAD_CAT_ID,ELEMENT_SET_NO,REV_AT_EPOCH,BSTAR,MEAN_MOTION_DOT,MEAN_MOTION_DDOT
M2 PATHFINDER,2020-037E,2026-07-11T12:26:29.294304,15.04785547,.00132758,97.8150,24.0254,74.1072,286.1616,0,U,45727,999,32915,.80910191E-4,.1079E-4,0
NETSAT-4,2020-068U,2026-07-11T11:43:39.316800,15.44673317,.00043435,97.8607,202.6960,207.7284,152.3732,0,U,46504,999,31952,.23469153E-3,.10849E-3,0
NETSAT-3,2020-068V,2026-07-11T13:52:28.906176,15.43525225,.00033769,97.8654,200.9796,227.4367,132.6595,0,U,46505,999,31944,.25063843E-3,.11149E-3,0
NETSAT-1,2020-068W,2026-07-11T13:58:32.694240,15.35191564,.00024394,97.8751,195.0226,285.6031,74.4941,0,U,46506,999,31904,.21210218E-3,.7156E-4,0
NETSAT-2,2020-068X,2026-07-11T13:23:26.495520,15.47054012,.00016992,97.8614,202.7589,226.9444,133.1663,0,U,46507,999,31950,.28289943E-3,.14215E-3,0
GREENCUBE (IO-117),2022-080E,2026-07-11T07:23:26.297664,6.42583311,.0009046,70.1420,289.8580,284.3679,75.5976,0,U,53109,999,9361,0,-.3E-7,0
SITRO-AIS 5 (KATYS),2023-091L,2026-07-11T22:14:35.570112,15.30017890,.00110033,97.5054,257.0686,23.9173,336.2576,0,U,57176,999,16812,.2626468E-3,.7567E-4,0
SITRO-AIS 6 (CHIRKIN),2023-091AC,2026-07-11T21:33:08.553888,15.26399121,.00115192,97.5061,256.0259,27.8635,332.3218,0,U,57192,999,16805,.23223494E-3,.5979E-4,0
SITRO-AIS 8 (ANOKHIN),2023-091AD,2026-07-11T21:35:39.492096,15.32800332,.00098722,97.5051,258.7326,19.8826,340.2798,0,U,57193,999,16823,.26093721E-3,.8198E-4,0
SITRO-AIS 7 (FARTUSHNIY),2023-091AE,2026-07-11T21:45:04.943808,15.26074773,.0011477,97.5057,255.8462,29.0071,331.1803,0,U,57194,999,16804,.23172601E-3,.5907E-4,0
SITRO-AIS 10 (BURDAEV),2023-091AK,2026-07-11T22:55:38.066016,15.39545750,.00051447,97.5077,264.1038,355.0702,5.0492,0,U,57199,999,16857,.31802183E-3,.12425E-3,0
SITRO-AIS 9 (SHCHUKIN),2023-091AM,2026-07-11T22:11:37.593024,15.39031595,.00054235,97.5074,263.7827,355.3571,4.7622,0,U,57201,999,16855,.30489719E-3,.11709E-3,0
SITRO-AIS 12 (SMIRENNIY),2023-091AQ,2026-07-11T21:51:20.418336,15.39327740,.00049589,97.5088,264.2510,348.3582,11.7547,0,U,57204,999,16857,.31137093E-3,.12076E-3,0
SITRO-AIS 11 (SHEFFER),2023-091AU,2026-07-11T22:00:38.699712,15.39769393,.0004845,97.5087,264.5201,347.6666,12.4460,0,U,57208,999,16859,.3046947E-3,.11987E-3,0
SITRO-AIS 25,2024-039R,2026-07-11T23:08:11.130144,14.93630965,.01425488,95.3895,252.1187,240.9490,117.7395,0,U,59066,999,12842,.13246881E-3,.1672E-4,0
SITRO-AIS 26,2024-039S,2026-07-11T23:15:04.502304,14.93422992,.01428903,95.3895,252.0145,241.5490,117.1278,0,U,59067,999,12841,.13531149E-3,.17E-4,0
SITRO-AIS 27,2024-039T,2026-07-11T22:22:10.550784,14.93848192,.01419585,95.3899,252.2727,240.2244,118.4800,0,U,59068,999,12843,.12659423E-3,.1603E-4,0
SITRO-AIS 28,2024-039U,2026-07-11T23:25:21.458784,14.93881174,.01418666,95.3898,252.3514,239.8974,118.8125,0,U,59071,999,12844,.15319362E-3,.1949E-4,0
GRBBETA,2024-128C,2026-07-11T07:27:10.573056,15.06792341,.00375247,61.9892,131.6189,139.8192,220.5686,0,U,60237,999,10990,.16150702E-3,.2233E-4,0
OOV-CUBE (TUBSAT-30),2024-128F,2026-07-11T09:47:33.954432,15.02864718,.00415826,61.9942,141.1095,139.1306,221.2916,0,U,60240,999,10975,.10330684E-3,.1201E-4,0
ROBUSTA-3A (MEDITERRANEE),2024-128J,2026-07-11T20:55:20.573760,15.11956772,.00383704,61.9860,120.9328,133.3412,227.0892,0,U,60243,999,11015,.28094436E-3,.47E-4,0
LASARSAT,2024-247Q,2026-07-11T04:32:50.416224,15.47861056,.00068751,44.9745,127.1862,135.1375,225.0072,0,U,62391,999,8703,.43320782E-3,.22765E-3,0
CROCUBE,2024-247T,2026-07-10T04:33:02.620224,15.49924104,.00069141,44.9700,129.7539,137.1599,222.9832,0,U,62394,999,8691,.58811806E-3,.33442E-3,0
FORESAIL-1 PRIME,2025-276DS,2026-07-11T18:26:45.362112,15.18920146,.00031429,97.4195,265.5912,52.4628,307.6892,0,U,66778,999,3413,.13553548E-3,.2762E-4,0
KNACKSAT-2,1998-067XZ,2026-07-11T08:33:41.694048,15.62129323,.00081939,51.6254,172.7064,314.9456,45.0873,0,U,67683,999,2405,.40006392E-3,.35473E-3,0
