M2 PATHFINDER           
1 45727U 20037E   26192.51839461  .00001079  00000+0  80910-4 0  9992
2 45727  97.8150  24.0254 0013275  74.1072 286.1616 15.04785547329159
NETSAT-4                
1 46504U 20068U   26192.48864950  .00010849  00000+0  23469-3 0  9997
2 46504  97.8607 202.6960 0004343 207.7284 152.3732 15.44673317319521
NETSAT-3                
1 46505U 20068V   26192.57811234  .00011149  00000+0  25064-3 0  9992
2 46505  97.8654 200.9796 0003376 227.4367 132.6595 15.43525225319440
NETSAT-1                
1 46506U 20068W   26192.58232285  .00007156  00000+0  21210-3 0  9999
2 46506  97.8751 195.0226 0002439 285.6031  74.4941 15.35191564319044
NETSAT-2                
1 46507U 20068X   26192.55794555  .00014215  00000+0  28290-3 0  9999
2 46507  97.8614 202.7589 0001699 226.9444 133.1663 15.47054012319508
GREENCUBE (IO-117)      
1 53109U 22080E   26192.30794326 -.00000003  00000+0  00000+0 0  9996
2 53109  70.1420 289.8580 0009046 284.3679  75.5976  6.42583311 93613
SITRO-AIS 5 (KATYS)     
1 57176U 23091L   26192.92680058  .00007567  00000+0  26265-3 0  9997
2 57176  97.5054 257.0686 0011003  23.9173 336.2576 15.30017890168126
SITRO-AIS 6 (CHIRKIN)   
1 57192U 23091AC  26192.89801567  .00005979  00000+0  23223-3 0  9997
2 57192  97.5061 256.0259 0011519  27.8635 332.3218 15.26399121168052
SITRO-AIS 8 (ANOKHIN)   
1 57193U 23091AD  26192.89976264  .00008198  00000+0  26094-3 0  9990
2 57193  97.5051 258.7326 0009872  19.8826 340.2798 15.32800332168237
SITRO-AIS 7 (FARTUSHNIY)
1 57194U 23091AE  26192.90630722  .00005907  00000+0  23173-3 0  9999
2 57194  97.5057 255.8462 0011477  29.0071 331.1803 15.26074773168042
SITRO-AIS 10 (BURDAEV)  
1 57199U 23091AK  26192.95530169  .00012425  00000+0  31802-3 0  9994
2 57199  97.5077 264.1038 0005144 355.0702   5.0492 15.39545750168579
SITRO-AIS 9 (SHCHUKIN)  
1 57201U 23091AM  26192.92474066  .00011709  00000+0  30490-3 0  9994
2 57201  97.5074 263.7827 0005423 355.3571   4.7622 15.39031595168554
SITRO-AIS 12 (SMIRENNIY)
1 57204U 23091AQ  26192.91065299  .00012076  00000+0  31137-3 0  9997
2 57204  97.5088 264.2510 0004958 348.3582  11.7547 15.39327740168579
SITRO-AIS 11 (SHEFFER)  
1 57208U 23091AU  26192.91711458  .00011987  00000+0  30469-3 0  9993
2 57208  97.5087 264.5201 0004845 347.6666  12.4460 15.39769393168590
SITRO-AIS 25            
1 59066U 24039R   26192.96401771  .00001672  00000+0  13247-3 0  9994
2 59066  95.3895 252.1187 0142548 240.9490 117.7395 14.93630965128421
SITRO-AIS 26            
1 59067U 24039S   26192.96880211  .00001700  00000+0  13531-3 0  9993
2 59067  95.3895 252.0145 0142890 241.5490 117.1278 14.93422992128414
SITRO-AIS 27            
1 59068U 24039T   26192.93206656  .00001603  00000+0  12659-3 0  9998
2 59068  95.3899 252.2727 0141958 240.2244 118.4800 14.93848192128435
SITRO-AIS 28            
1 59071U 24039U   26192.97594281  .00001949  00000+0  15319-3 0  9999
2 59071  95.3898 252.3514 0141866 239.8974 118.8125 14.93881174128447
GRBBETA                 
1 60237U 24128C   26192.31053904  .00002233  00000+0  16151-3 0  9996
2 60237  61.9892 131.6189 0037524 139.8192 220.5686 15.06792341109904
OOV-CUBE (TUBSAT-30)    
1 60240U 24128F   26192.40803188  .00001201  00000+0  10331-3 0  9995
2 60240  61.9942 141.1095 0041582 139.1306 221.2916 15.02864718109756
ROBUSTA-3A (MEDITERRAN*)
1 60243U 24128J   26192.87176590  .00004700  00000+0  28094-3 0  9991
2 60243  61.9860 120.9328 0038370 133.3412 227.0892 15.11956772110152
LASARSAT                
1 62391U 24247Q   26192.18947241  .00022765  00000+0  43321-3 0  9993
2 62391  44.9745 127.1862 0006875 135.1375 225.0072 15.47861056 87033
CROCUBE                 
1 62394U 24247T   26191.18961366  .00033442  00000+0  58812-3 0  9994
2 62394  44.9700 129.7539 0006914 137.1599 222.9832 15.49924104 86912
FORESAIL-1 PRIME        
1 66778U 25276DS  26192.76858058  .00002762  00000+0  13554-3 0  9990
2 66778  97.4195 265.5912 0003142  52.4628 307.6892 15.18920146 34131
KNACKSAT-2              
1 67683U 98067XZ  26192.35673257  .00035473  00000+0  40006-3 0  9992
2 67683  51.6254 172.7064 0008193 314.9456  45.0873 15.62129323 24057
